KUIPER-00044            
1 64505U 25134F   26193.98595543 -.00000507  00000+0 -37550-4 0  9991
2 64505  51.9008  51.4934 0000809 117.4524 242.6521 14.79931468 58458
KUIPER-00046            
1 64506U 25134G   26194.96782973  .00001769  00000+0  26094-3 0  9995
2 64506  51.8984  44.6292 0000774 115.7302 244.3741 14.79941875 58634
KUIPER-00047            
1 64507U 25134H   26194.76114117  .00000221  00000+0  57945-4 0  9995
2 64507  51.9009  18.0671 0000880 125.2750 234.8295 14.79931598 58988
KUIPER-00048            
1 64508U 25134J   26194.72738882  .00001657  00000+0  24623-3 0  9993
2 64508  51.9002  18.2305 0000685 123.7815 236.3212 14.79935836 58981
KUIPER-00049            
1 64509U 25134K   26194.95024406  .00000726  00000+0  12425-3 0  9992
2 64509  51.9037  29.7070 0000716 113.3013 246.8025 14.79933159 58845
KUIPER-00050            
1 64510U 25134L   26194.69900678  .00001135  00000+0  17792-3 0  9996
2 64510  51.9017  13.3425 0000661 125.4728 234.6296 14.79931749 59056
KUIPER-00051            
1 64511U 25134M   26194.92626303  .00001743  00000+0  25760-3 0  9992
2 64511  51.9022  28.5094 0000807 117.9284 242.1760 14.79940359 58852
KUIPER-00053            
1 64513U 25134P   26194.74593558  .00001460  00000+0  21184-3 0  9991
2 64513  51.9017  24.5667 0000430 334.3453  25.7489 14.81685936 58892
KUIPER-00054            
1 64514U 25134Q   26194.72471727  .00001705  00000+0  25266-3 0  9990
2 64514  51.9000  20.7207 0000905 129.3290 230.7753 14.79929633 58941
KUIPER-00055            
1 64515U 25134R   26194.60710654 -.00000096  00000+0  16449-4 0  9990
2 64515  51.9028 333.8777 0000599  92.5921 267.5110 14.79930940 59593
KUIPER-00056            
1 64516U 25134S   26194.82059656  .00000575  00000+0  10437-3 0  9994
2 64516  51.9045  25.3911 0000767 106.4636 253.6411 14.79930232 58897
KUIPER-00057            
1 64517U 25134T   26194.94755275  .00002090  00000+0  30306-3 0  9999
2 64517  51.8999  32.2607 0000700 106.1073 253.9966 14.79929157 58806
KUIPER-00058            
1 64518U 25134U   26194.91917513  .00001799  00000+0  26490-3 0  9996
2 64518  51.9025  27.3569 0000696 124.8814 235.2214 14.79942353 58873
KUIPER-00059            
1 64519U 25134V   26194.72198674  .00000565  00000+0  10310-3 0  9999
2 64519  51.8999  23.2686 0000760 121.1381 238.9656 14.79932441 58911
KUIPER-00060            
1 64520U 25134W   26194.82329147  .00000349  00000+0  74829-4 0  9999
2 64520  51.9032  22.8848 0000725 117.1761 242.9275 14.79932828 58916
KUIPER-00061            
1 64521U 25134X   26194.91651250  .00001860  00000+0  27302-3 0  9995
2 64521  51.9025  29.9247 0000869 110.6431 249.4625 14.79913636 58828
