{"fetched_at":"2026-07-14T17:40:21.416Z","source":"https://celestrak.org/NORAD/elements/gp.php?GROUP=kuiper&FORMAT=JSON","constellation":"kuiper","records":[{"OBJECT_NAME":"KUIPER-00044","OBJECT_ID":"2025-134F","EPOCH":"2026-07-12T23:39:46.549152","CLASSIFICATION_TYPE":"U","MEAN_MOTION":14.79931468,"ECCENTRICITY":0.00008091,"INCLINATION":51.9008,"RA_OF_ASC_NODE":51.4934,"ARG_OF_PERICENTER":117.4524,"MEAN_ANOMALY":242.6521,"EPHEMERIS_TYPE":0,"NORAD_CAT_ID":64505,"ELEMENT_SET_NO":999,"REV_AT_EPOCH":5845,"BSTAR":-0.000037550243,"MEAN_MOTION_DOT":-0.00000507,"MEAN_MOTION_DDOT":0},{"OBJECT_NAME":"KUIPER-00046","OBJECT_ID":"2025-134G","EPOCH":"2026-07-13T23:13:40.488672","CLASSIFICATION_TYPE":"U","MEAN_MOTION":14.79941875,"ECCENTRICITY":0.0000774,"INCLINATION":51.8984,"RA_OF_ASC_NODE":44.6292,"ARG_OF_PERICENTER":115.7302,"MEAN_ANOMALY":244.3741,"EPHEMERIS_TYPE":0,"NORAD_CAT_ID":64506,"ELEMENT_SET_NO":999,"REV_AT_EPOCH":5863,"BSTAR":0.00026094,"MEAN_MOTION_DOT":0.00001769,"MEAN_MOTION_DDOT":0},{"OBJECT_NAME":"KUIPER-00047","OBJECT_ID":"2025-134H","EPOCH":"2026-07-13T18:16:02.597088","CLASSIFICATION_TYPE":"U","MEAN_MOTION":14.79931598,"ECCENTRICITY":0.000088,"INCLINATION":51.9009,"RA_OF_ASC_NODE":18.0671,"ARG_OF_PERICENTER":125.275,"MEAN_ANOMALY":234.8295,"EPHEMERIS_TYPE":0,"NORAD_CAT_ID":64507,"ELEMENT_SET_NO":999,"REV_AT_EPOCH":5898,"BSTAR":0.000057945,"MEAN_MOTION_DOT":0.00000221,"MEAN_MOTION_DDOT":0},{"OBJECT_NAME":"KUIPER-00048","OBJECT_ID":"2025-134J","EPOCH":"2026-07-13T17:27:26.394048","CLASSIFICATION_TYPE":"U","MEAN_MOTION":14.79935836,"ECCENTRICITY":0.0000685,"INCLINATION":51.9002,"RA_OF_ASC_NODE":18.2305,"ARG_OF_PERICENTER":123.7815,"MEAN_ANOMALY":236.3212,"EPHEMERIS_TYPE":0,"NORAD_CAT_ID":64508,"ELEMENT_SET_NO":999,"REV_AT_EPOCH":5898,"BSTAR":0.00024623,"MEAN_MOTION_DOT":0.00001657,"MEAN_MOTION_DDOT":0},{"OBJECT_NAME":"KUIPER-00049","OBJECT_ID":"2025-134K","EPOCH":"2026-07-13T22:48:21.086784","CLASSIFICATION_TYPE":"U","MEAN_MOTION":14.79933159,"ECCENTRICITY":0.0000716,"INCLINATION":51.9037,"RA_OF_ASC_NODE":29.707,"ARG_OF_PERICENTER":113.3013,"MEAN_ANOMALY":246.8025,"EPHEMERIS_TYPE":0,"NORAD_CAT_ID":64509,"ELEMENT_SET_NO":999,"REV_AT_EPOCH":5884,"BSTAR":0.00012425,"MEAN_MOTION_DOT":0.00000726,"MEAN_MOTION_DDOT":0},{"OBJECT_NAME":"KUIPER-00050","OBJECT_ID":"2025-134L","EPOCH":"2026-07-13T16:46:34.185792","CLASSIFICATION_TYPE":"U","MEAN_MOTION":14.79931749,"ECCENTRICITY":0.0000661,"INCLINATION":51.9017,"RA_OF_ASC_NODE":13.3425,"ARG_OF_PERICENTER":125.4728,"MEAN_ANOMALY":234.6296,"EPHEMERIS_TYPE":0,"NORAD_CAT_ID":64510,"ELEMENT_SET_NO":999,"REV_AT_EPOCH":5905,"BSTAR":0.00017792,"MEAN_MOTION_DOT":0.00001135,"MEAN_MOTION_DDOT":0},{"OBJECT_NAME":"KUIPER-00051","OBJECT_ID":"2025-134M","EPOCH":"2026-07-13T22:13:49.125792","CLASSIFICATION_TYPE":"U","MEAN_MOTION":14.79940359,"ECCENTRICITY":0.0000807,"INCLINATION":51.9022,"RA_OF_ASC_NODE":28.5094,"ARG_OF_PERICENTER":117.9284,"MEAN_ANOMALY":242.176,"EPHEMERIS_TYPE":0,"NORAD_CAT_ID":64511,"ELEMENT_SET_NO":999,"REV_AT_EPOCH":5885,"BSTAR":0.0002576,"MEAN_MOTION_DOT":0.00001743,"MEAN_MOTION_DDOT":0},{"OBJECT_NAME":"KUIPER-00053","OBJECT_ID":"2025-134P","EPOCH":"2026-07-13T17:54:08.834112","CLASSIFICATION_TYPE":"U","MEAN_MOTION":14.81685936,"ECCENTRICITY":0.000043,"INCLINATION":51.9017,"RA_OF_ASC_NODE":24.5667,"ARG_OF_PERICENTER":334.3453,"MEAN_ANOMALY":25.7489,"EPHEMERIS_TYPE":0,"NORAD_CAT_ID":64513,"ELEMENT_SET_NO":999,"REV_AT_EPOCH":5889,"BSTAR":0.00021184,"MEAN_MOTION_DOT":0.0000146,"MEAN_MOTION_DDOT":0},{"OBJECT_NAME":"KUIPER-00054","OBJECT_ID":"2025-134Q","EPOCH":"2026-07-13T17:23:35.572128","CLASSIFICATION_TYPE":"U","MEAN_MOTION":14.79929633,"ECCENTRICITY":0.0000905,"INCLINATION":51.9,"RA_OF_ASC_NODE":20.7207,"ARG_OF_PERICENTER":129.329,"MEAN_ANOMALY":230.7753,"EPHEMERIS_TYPE":0,"NORAD_CAT_ID":64514,"ELEMENT_SET_NO":999,"REV_AT_EPOCH":5894,"BSTAR":0.00025266,"MEAN_MOTION_DOT":0.00001705,"MEAN_MOTION_DDOT":0},{"OBJECT_NAME":"KUIPER-00055","OBJECT_ID":"2025-134R","EPOCH":"2026-07-13T14:34:14.005056","CLASSIFICATION_TYPE":"U","MEAN_MOTION":14.7993094,"ECCENTRICITY":0.0000599,"INCLINATION":51.9028,"RA_OF_ASC_NODE":333.8777,"ARG_OF_PERICENTER":92.5921,"MEAN_ANOMALY":267.511,"EPHEMERIS_TYPE":0,"NORAD_CAT_ID":64515,"ELEMENT_SET_NO":999,"REV_AT_EPOCH":5959,"BSTAR":0.000016449,"MEAN_MOTION_DOT":-9.6e-7,"MEAN_MOTION_DDOT":0},{"OBJECT_NAME":"KUIPER-00056","OBJECT_ID":"2025-134S","EPOCH":"2026-07-13T19:41:39.542784","CLASSIFICATION_TYPE":"U","MEAN_MOTION":14.79930232,"ECCENTRICITY":0.0000767,"INCLINATION":51.9045,"RA_OF_ASC_NODE":25.3911,"ARG_OF_PERICENTER":106.4636,"MEAN_ANOMALY":253.6411,"EPHEMERIS_TYPE":0,"NORAD_CAT_ID":64516,"ELEMENT_SET_NO":999,"REV_AT_EPOCH":5889,"BSTAR":0.00010437,"MEAN_MOTION_DOT":0.00000575,"MEAN_MOTION_DDOT":0},{"OBJECT_NAME":"KUIPER-00057","OBJECT_ID":"2025-134T","EPOCH":"2026-07-13T22:44:28.557600","CLASSIFICATION_TYPE":"U","MEAN_MOTION":14.79929157,"ECCENTRICITY":0.00007,"INCLINATION":51.8999,"RA_OF_ASC_NODE":32.2607,"ARG_OF_PERICENTER":106.1073,"MEAN_ANOMALY":253.9966,"EPHEMERIS_TYPE":0,"NORAD_CAT_ID":64517,"ELEMENT_SET_NO":999,"REV_AT_EPOCH":5880,"BSTAR":0.00030306,"MEAN_MOTION_DOT":0.0000209,"MEAN_MOTION_DDOT":0},{"OBJECT_NAME":"KUIPER-00058","OBJECT_ID":"2025-134U","EPOCH":"2026-07-13T22:03:36.731232","CLASSIFICATION_TYPE":"U","MEAN_MOTION":14.79942353,"ECCENTRICITY":0.0000696,"INCLINATION":51.9025,"RA_OF_ASC_NODE":27.3569,"ARG_OF_PERICENTER":124.8814,"MEAN_ANOMALY":235.2214,"EPHEMERIS_TYPE":0,"NORAD_CAT_ID":64518,"ELEMENT_SET_NO":999,"REV_AT_EPOCH":5887,"BSTAR":0.0002649,"MEAN_MOTION_DOT":0.00001799,"MEAN_MOTION_DDOT":0},{"OBJECT_NAME":"KUIPER-00059","OBJECT_ID":"2025-134V","EPOCH":"2026-07-13T17:19:39.654336","CLASSIFICATION_TYPE":"U","MEAN_MOTION":14.79932441,"ECCENTRICITY":0.000076,"INCLINATION":51.8999,"RA_OF_ASC_NODE":23.2686,"ARG_OF_PERICENTER":121.1381,"MEAN_ANOMALY":238.9656,"EPHEMERIS_TYPE":0,"NORAD_CAT_ID":64519,"ELEMENT_SET_NO":999,"REV_AT_EPOCH":5891,"BSTAR":0.0001031,"MEAN_MOTION_DOT":0.00000565,"MEAN_MOTION_DDOT":0},{"OBJECT_NAME":"KUIPER-00060","OBJECT_ID":"2025-134W","EPOCH":"2026-07-13T19:45:32.383008","CLASSIFICATION_TYPE":"U","MEAN_MOTION":14.79932828,"ECCENTRICITY":0.0000725,"INCLINATION":51.9032,"RA_OF_ASC_NODE":22.8848,"ARG_OF_PERICENTER":117.1761,"MEAN_ANOMALY":242.9275,"EPHEMERIS_TYPE":0,"NORAD_CAT_ID":64520,"ELEMENT_SET_NO":999,"REV_AT_EPOCH":5891,"BSTAR":0.000074829,"MEAN_MOTION_DOT":0.00000349,"MEAN_MOTION_DDOT":0},{"OBJECT_NAME":"KUIPER-00061","OBJECT_ID":"2025-134X","EPOCH":"2026-07-13T21:59:46.680000","CLASSIFICATION_TYPE":"U","MEAN_MOTION":14.79913636,"ECCENTRICITY":0.0000869,"INCLINATION":51.9025,"RA_OF_ASC_NODE":29.9247,"ARG_OF_PERICENTER":110.6431,"MEAN_ANOMALY":249.4625,"EPHEMERIS_TYPE":0,"NORAD_CAT_ID":64521,"ELEMENT_SET_NO":999,"REV_AT_EPOCH":5882,"BSTAR":0.00027302,"MEAN_MOTION_DOT":0.0000186,"MEAN_MOTION_DDOT":0}]}
